HALOSAT                 
1 43549U 98067NX  20143.09052276  .00022415  00000-0  16960-3 0  9995
2 43549  51.6369  65.7249 0003409  21.5644 338.5497 15.72320267105660
ENDUROSAT ONE           
1 43551U 98067NZ  20144.19959639  .00044705  00000-0  24553-3 0  9992
2 43551  51.6355  49.7692 0003098  42.2938 317.8301 15.79285710106386
EQUISAT                 
1 43552U 98067PA  20144.21036669  .00025719  00000-0  18736-3 0  9995
2 43552  51.6364  58.2400 0004141  22.6716 337.4465 15.73122915106239
AEROCUBE 12A            
1 43556U 18046C   20143.63265598  .00001156  00000-0  51913-4 0  9992
2 43556  51.6420 229.6193 0008106 200.5074 159.5581 15.29742643103425
AEROCUBE 12B            
1 43557U 18046D   20143.81941931  .00000284  00000-0  22254-4 0  9992
2 43557  51.6422 229.3553 0008099 200.5403 159.5252 15.29466740103394
UITMSAT-1               
1 43589U 98067PD  20142.94436553  .00030909  00000-0  20261-3 0  9992
2 43589  51.6347  63.1046 0004041  41.5667 318.5639 15.75472456101794
MAYA-1                  
1 43590U 98067PE  20142.93715854  .00031259  00000-0  20480-3 0  9999
2 43590  51.6326  63.0626 0003930  37.3956 322.7316 15.75478281101720
BHUTAN-1                
1 43591U 98067PF  20143.80005306  .00030754  00000-0  19992-3 0  9996
2 43591  51.6368  58.3891 0004057  44.3310 315.8014 15.75666926101869
SIRIUSSAT-1             
1 43595U 98067PG  20143.81383695  .00025260  00000-0  18253-3 0  9996
2 43595  51.6337  62.9481 0001758  35.3607 324.7508 15.73331317100989
SIRIUSSAT-2             
1 43596U 98067PH  20143.68327788  .00025414  00000-0  18451-3 0  9994
2 43596  51.6339  64.3985 0001756  19.9017 340.2050 15.73216230100956
TANUSHA-3               
1 43597U 98067PJ  20143.68616152  .00061756  00000-0  29050-3 0  9997
2 43597  51.6307  52.9335 0001985  82.4766 277.6462 15.82525659101100
SURFSAT                 
1 43614U 18070B   20143.52880340  .00002376  00000-0  61311-4 0  9998
2 43614  93.0193 143.8748 0018248  79.7887 280.5424 15.39068394 94498
CP7 (DAVE)              
1 43615U 18070C   20143.62286125  .00002229  00000-0  57784-4 0  9997
2 43615  93.0195 143.9056 0018381  79.1262 281.2059 15.38929603 94505
ELFIN-B                 
1 43616U 18070D   20143.68551584  .00003575  00000-0  88703-4 0  9998
2 43616  93.0156 143.8660 0018894  80.4573 279.8815 15.40221088 94555
ELFIN-A                 
1 43617U 18070E   20143.78676969  .00003616  00000-0  89268-4 0  9998
2 43617  93.0208 144.3985 0018234  77.5733 282.7561 15.40393179 94577
CUBEBEL-1 (BSUSAT-1)    
1 43666U 18083E   20144.53345425  .00000990  00000-0  51574-4 0  9991
2 43666  97.4899 171.2427 0016654  86.9800  67.4734 15.18215744 86834
DEBRISSAT-2             
1 43680U 98067PR  20143.10444566  .00553965  16560-3  62435-3 0  9998
2 43680  51.6261  43.6566 0005335 219.6384 140.4240 16.08664330109870
CICERO 10               
1 43690U 18088A   20143.95321932  .00000751  00000-0  32690-4 0  9998
2 43690  85.0376  95.1228 0016738  49.6789 310.5911 15.20197756 84867
IRVINE01                
1 43693U 18088D   20143.33885735  .00002628  00000-0  11031-3 0  9999
2 43693  85.0346  94.2966 0019385  34.2571 325.9917 15.22767848 84870
PROXIMA I               
1 43694U 18088E   20143.31703376  .00000930  00000-0  38804-4 0  9990
2 43694  85.0318  94.1392 0020273  26.1813 334.0449 15.21931498 84873
PROXIMA II              
1 43696U 18088G   20143.84129331  .00000900  00000-0  37524-4 0  9998
2 43696  85.0319  93.7958 0020249  24.2711 335.9480 15.21934652 84946
FACSAT-1                
1 43721U 18096C   20144.31280865  .00001215  00000-0  48289-4 0  9999
2 43721  97.4213 218.0224 0016869 206.6018 153.4357 15.27158111 82557
CENTAURI-2              
1 43722U 18096D   20143.62657715  .00001543  00000-0  59647-4 0  9999
2 43722  97.4223 217.5906 0016831 208.7870 151.2442 15.27663400 82450
INNOSAT-2               
1 43738U 18096V   20144.08864422  .00002319  00000-0  81449-4 0  9999
2 43738  97.4240 219.9148 0022533 215.8143 144.1588 15.30207947 82656
SIRION PATHFINDER-2     
1 43759U 18099B   20144.14900793  .00000587  00000-0  58452-4 0  9997
2 43759  97.7061 216.2387 0012654 267.1311  92.8462 14.95268343 80147
CORVUS-BC 4             
1 43767U 18099K   20143.74610759  .00000542  00000-0  55148-4 0  9991
2 43767  97.7043 215.2815 0010191 273.2564  86.7491 14.94714002 80065
MOVE-II                 
1 43780U 18099Y   20143.62883948  .00000457  00000-0  46578-4 0  9997
2 43780  97.7070 215.6509 0011856 282.2194  77.7699 14.95379149 80051
SPACEBEE-7              
1 43816U 18099BL  20143.43944561 -.00000014  00000-0  39596-5 0  9998
2 43816  97.7083 215.8403 0011815 265.3674  94.6198 14.95675669 79607
SPACEBEE-5              
1 43817U 18099BM  20143.73764949  .00001024  00000-0  95729-4 0  9992
2 43817  97.7127 216.5392 0011573 262.3755  97.6152 14.96257247 79668
SPACEBEE-6              
1 43818U 18099BN  20143.67373565  .00000779  00000-0  74855-4 0  9999
2 43818  97.7094 216.1973 0011759 263.0308  96.9576 14.95856180 79797
SHIELDS 1               
1 43850U 18104B   20144.20824607  .00000042  00000-0  00000+0 0  9999
2 43850  85.0308 192.0404 0015679 154.2822 205.9223 15.21364719 79635
STF-1                   
1 43852U 18104D   20143.89045978  .00000041  00000-0  00000-0 0  9991
2 43852  85.0354 192.7735 0014445 168.8902 191.2674 15.21234292 79563
ZACUBE-2                
1 43907U 18111AH  20144.18321032  .00000390  00000-0  18598-4 0  9993
2 43907  97.2680  44.7057 0020104 230.1756 129.7713 15.24567596 78167
LUME 1                  
1 43908U 18111AJ  20144.37709772  .00000785  00000-0  34128-4 0  9991
2 43908  97.2679  45.0478 0019843 229.0495 130.9026 15.24995599 78206
AOBA VELOX-IV           
1 43940U 19003J   20143.78781089  .00001501  00000-0  62698-4 0  9993
2 43940  97.2299 195.9454 0022503 317.4565  42.4929 15.24929856 74732
CATSAT-2                
1 44029U 98067PV  20143.38673934  .00015122  00000-0  15968-3 0  9995
2 44029  51.6386  88.0949 0004166   6.9039 353.2012 15.64428147 74449
DELPHINI                
1 44030U 98067PW  20143.86694832  .00016717  00000-0  16943-3 0  9995
2 44030  51.6348  84.4509 0003893  10.7768 349.3310 15.65380058 74502
UNITE                   
1 44031U 98067PX  20143.12649820  .00007891  00000-0  98623-4 0  9991
2 44031  51.6372  94.5699 0003042 359.2033   0.8955 15.60870290 74303
CATSAT-1                
1 44033U 98067PZ  20143.83378474  .00013458  00000-0  14275-3 0  9991
2 44033  51.6389  85.8369 0003986   6.9312 353.1737 15.64430097 74429
RAAVANA-1               
1 44329U 98067QE  20143.91580512  .00008372  00000-0  11840-3 0  9990
2 44329  51.6385 102.1401 0004763 272.6101  87.4345 15.57447607 53027
UGUISU                  
1 44330U 98067QF  20143.34947764  .00008452  00000-0  11983-3 0  9992
2 44330  51.6382 105.1041 0004795 268.2803  91.7640 15.57365128 52914
NEPALISAT-1             
1 44331U 98067QG  20143.33117209  .00008079  00000-0  11442-3 0  9990
2 44331  51.6380 104.9847 0004875 271.9685  88.0749 15.57465574 52928
SPOOQY-1                
1 44332U 98067QH  20143.97477559  .00008253  00000-0  11708-3 0  9997
2 44332  51.6383 101.7801 0003851 279.2097  80.8459 15.57389495 52989
SPACEBEE-9              
1 44370U 19037F   20144.48873612  .00006633  00000-0  15410-3 0  9990
2 44370  45.0126 255.2962 0012074  30.3448 329.8140 15.43124577 50747
SPACEBEE-8              
1 44371U 19037G   20144.17443200  .00012840  00000-0  25496-3 0  9995
2 44371  45.0158 252.1182 0010025  26.8374 333.3038 15.47005786 50745
IOD-1 GEMS              
1 44385U 98067QK  20144.19067935  .00013750  00000-0  17627-3 0  9997
2 44385  51.6399  99.5195 0001138 208.8526 151.2404 15.59468358 50546
MOVE-IIB                
1 44398U 19038N   20143.87984497  .00000737  00000-0  46164-4 0  9997
2 44398  97.5344 105.4409 0024128 212.6554 147.3186 15.12273315 48717
SONATE                  
1 44400U 19038Q   20143.44502323  .00000363  00000-0  24887-4 0  9991
2 44400  97.5380 105.0292 0024237 212.5579 147.4158 15.11932839 48648
LUCKY-7                 
1 44406U 19038W   20143.79607661  .00000385  00000-0  26002-4 0  9991
2 44406  97.5375 105.4706 0023707 210.9630 149.0204 15.12193039 48690
BEESAT 9                
1 44412U 19038AC  20143.13429263  .00000527  00000-0  34132-4 0  9997
2 44412  97.5366 104.7984 0021573 219.1405 140.8266 15.12261815 48298
JAISAT-1                
1 44419U 19038F   20144.35363100  .00000603  00000-0  38024-4 0  9995
2 44419  97.5369 106.2474 0020550 213.7380 146.2544 15.12746606 48807
SWIATOWID               
1 44426U 98067QL  20144.42662218  .00015307  00000-0  18997-3 0  9995
2 44426  51.6416  97.8926 0001102 194.6290 252.7373 15.60226306 50602
KRAKSAT                 
1 44427U 98067QM  20144.42780385  .00005744  00000-0  89011-4 0  9992
2 44427  51.6420 102.3884 0002406 207.6552 247.7274 15.55637823 50582
VCC A                   
1 44428U 98067QN  20143.44890892  .00008103  00000-0  11745-3 0  9999
2 44428  51.6397 105.8111 0001425 237.0635 123.0220 15.56828587 50459
ENTRYSAT                
1 44429U 98067QP  20143.11339838  .00009589  00000-0  13332-3 0  9995
2 44429  51.6388 106.5485 0001116 216.9184 143.1732 15.57714103 50410
VCC C                   
1 44430U 98067QQ  20144.32335622  .00012124  00000-0  16003-3 0  9995
2 44430  51.6382  99.6392 0000798 252.5382 107.5523 15.58822958 49437
VCC B                   
1 44431U 98067QR  20143.89855869  .00008548  00000-0  12333-3 0  9994
2 44431  51.6391 103.5525 0001548 237.3053 122.7789 15.56871967 50461
ATL-1                   
1 44830U 19084G   20143.57285102  .00044286  00000-0  27815-3 0  9991
2 44830  96.9782  12.5225 0026157 339.9571  20.0666 15.76133564 26376
SMOG-P                  
1 44832U 19084J   20143.58901208  .00049377  00000-0  29679-3 0  9992
2 44832  96.9780  12.6622 0024847 338.5209  21.5013 15.77157393 26385
